STARLINK-5913           
1 55937U 23037Z   24334.53663065  .00001895  00000+0  16662-3 0  9990
2 55937  69.9976  17.3190 0002992 268.7203  91.3613 14.98320942 94309
STARLINK-5909           
1 55938U 23037AA  24334.39894048  .00002267  00000+0  19774-3 0  9993
2 55938  70.0011  17.6391 0003011 267.9339  92.1475 14.98332049 94286
STARLINK-5918           
1 55939U 23037AB  24334.52411802  .00000922  00000+0  85091-4 0  9994
2 55939  70.0003  17.2737 0002663 271.3660  88.7194 14.98314117 94304
STARLINK-5864           
1 55940U 23037AC  24334.52828697  .00001158  00000+0  10485-3 0  9996
2 55940  69.9984  17.2849 0002970 261.3121  98.7701 14.98329794 94309
STARLINK-5914           
1 55941U 23037AD  24334.41980629  .00003052  00000+0  26332-3 0  9992
2 55941  70.0006  17.7140 0002464 264.7316  95.3562 14.98348636 94289
STARLINK-5917           
1 55942U 23037AE  24334.23619918  .00000978  00000+0  89741-4 0  9991
2 55942  69.9998  17.8734 0003090 270.1437  89.9368 14.98330920 94266
STARLINK-5932           
1 55943U 23037AF  24334.37806698  .00001486  00000+0  13233-3 0  9997
2 55943  69.9986  17.5560 0003040 268.2626  91.8185 14.98333636 94289
STARLINK-5926           
1 55944U 23037AG  24334.37388569  .00005470  00000+0  46597-3 0  9996
2 55944  70.0048  17.5522 0002379 262.9580  97.1309 14.98323183 94287
STARLINK-5925           
1 55945U 23037AH  24334.38240030  .00000948  00000+0  87200-4 0  9990
2 55945  69.9967  17.5748 0002116 196.3659 163.7432 14.98338420 94288
STARLINK-5857           
1 55946U 23037AJ  24332.24592554 -.00000333  00000+0 -20101-4 0  9992
2 55946  70.0008  22.9680 0002697 268.1463  91.9387 14.98329291 93969
STARLINK-5851           
1 55947U 23037AK  24334.56598004 -.00003144  00000+0 -25572-3 0  9995
2 55947  70.0058  17.0187 0003317 278.9982  81.0802 14.98350120 94314
STARLINK-5900           
1 55948U 23037AL  24334.73229371  .00041611  00000+0  34450-2 0  9996
2 55948  70.0011 356.9162 0002792 283.9053  76.1796 14.98659758 94825
STARLINK-5899           
1 55949U 23037AM  24334.46964972  .00000709  00000+0  67227-4 0  9993
2 55949  69.9989 357.6032 0002508 263.5432  96.5441 14.98331893 94786
STARLINK-5911           
1 55950U 23037AN  24334.32358558  .00001635  00000+0  14470-3 0  9997
2 55950  69.9993 357.8972 0003089 275.3790  84.7017 14.98343742 94763
STARLINK-5908           
1 55951U 23037AP  24334.56582733  .00005967  00000+0  50723-3 0  9991
2 55951  70.0004  17.0162 0002651 265.9414  94.1442 14.98348539 94315
STARLINK-5893           
1 55952U 23037AQ  24334.32794523  .00000852  00000+0  79158-4 0  9990
2 55952  69.9991 357.9129 0002732 263.1508  96.9340 14.98333990 94762
STARLINK-5889           
1 55953U 23037AR  24334.34030262  .00000083  00000+0  14787-4 0  9999
2 55953  69.9998 357.9569 0002946 268.6553  91.4269 14.98330044 94762
STARLINK-5892           
1 55954U 23037AS  24334.76588102  .00000330  00000+0  35479-4 0  9993
2 55954  69.9996 356.6316 0002791 269.5915  90.4924 14.98332908 94833
STARLINK-5878           
1 55955U 23037AT  24334.51553551 -.00000252  00000+0 -13330-4 0  9994
2 55955  70.0028 357.3691 0002323 246.4474 113.6441 14.98330802 94790
STARLINK-5883           
1 55956U 23037AU  24334.42373473 -.00001213  00000+0 -93950-4 0  9992
2 55956  69.9996 357.4430 0002962 270.6764  89.4056 14.98319889 94787
STARLINK-5884           
1 55957U 23037AV  24334.31943340 -.00000763  00000+0 -56150-4 0  9997
2 55957  70.0002 357.8829 0002529 270.2503  89.8366 14.98341627 94762
STARLINK-5928           
1 55958U 23037AW  24334.17756467 -.00000066  00000+0  22905-5 0  9991
2 55958  69.9990 358.1905 0002822 268.1809  91.9026 14.98330140 94749
STARLINK-5929           
1 55959U 23037AX  24334.17338784  .00001591  00000+0  14110-3 0  9990
2 55959  69.9983 358.1745 0003224 269.1097  90.9692 14.98334400 94742
STARLINK-5938           
1 55960U 23037AY  24334.19425775  .00001556  00000+0  13813-3 0  9991
2 55960  69.9995 358.2286 0002904 265.8750  94.2077 14.98333017 94748
STARLINK-5933           
1 55961U 23037AZ  24334.16085385  .00003698  00000+0  31741-3 0  9997
2 55961  69.9992 358.1310 0002260 256.1482 103.9426 14.98347111 94749
STARLINK-5906           
1 55962U 23037BA  24334.46557334 -.00013397  00000+0 -11202-2 0  9997
2 55962  69.9995 357.5843 0003754 276.3684  83.7047 14.98221084 94782
STARLINK-5924           
1 55963U 23037BB  24334.77004595  .00001267  00000+0  11392-3 0  9990
2 55963  69.9969 356.6458 0004215 274.8215  85.2462 14.98345720 94830
STARLINK-5895           
1 55964U 23037BC  24334.51161938  .00003150  00000+0  28310-3 0  9999
2 55964  70.0005 357.2826 0003351 269.4785  90.5989 14.96713148 94792
STARLINK-5894           
1 55965U 23037BD  24334.35280387  .00003318  00000+0  28565-3 0  9990
2 55965  69.9993 357.5970 0002824 271.3492  88.7344 14.98342588 94770
STARLINK-5905           
1 55986U 23042A   24334.72637269  .00000277  00000+0  35555-4 0  9994
2 55986  43.0048  62.9503 0001187 266.6116  93.4591 15.02536305 93782
STARLINK-5915           
1 55987U 23042B   24334.30974843 -.00001694  00000+0 -11037-3 0  9995
2 55987  43.0052  64.9872 0000458 232.9732 127.1069 15.02531526 92907
STARLINK-5916           
1 55988U 23042C   24334.71971190  .00000821  00000+0  75817-4 0  9999
2 55988  43.0060  62.8995 0001582 271.0658  89.0003 15.02534371 92961
STARLINK-5947           
1 55989U 23042D   24334.64879367  .00000956  00000+0  85812-4 0  9990
2 55989  43.0007  63.2299 0000522 234.8849 125.1944 15.02538809 92952
STARLINK-5946           
1 55990U 23042E   24334.59008525  .00000452  00000+0  48539-4 0  9992
2 55990  43.0015  63.6492 0000986 252.3822 107.6913 15.02537130 92948
STARLINK-5948           
1 55991U 23042F   24334.56678638 -.00001550  00000+0 -99710-4 0  9997
2 55991  43.0050  63.4709 0000873 161.2818 198.8057 15.02525204 92945
STARLINK-5962           
1 55992U 23042G   24334.91667824  .01196737  00000+0  79594-2 0  9999
2 55992  43.0030  52.5049 0001822 285.3739  10.9086 15.72119610  5650
STARLINK-5969           
1 55993U 23042H   24334.51916654  .00000107  00000+0  23033-4 0  9997
2 55993  43.0051  63.9739 0001489 272.1990  87.8682 15.02537062 92938
STARLINK-5956           
1 55994U 23042J   24333.64274811  .00000234  00000+0  32413-4 0  9996
2 55994  43.0044  68.5810 0001439 271.7936  88.2741 15.02536170 92808
STARLINK-5957           
1 55995U 23042K   24334.71193907  .00000509  00000+0  52735-4 0  9996
2 55995  43.0018  62.8447 0000854 246.3544 113.7208 15.02539862 92966
STARLINK-5903           
1 55996U 23042L   24334.56012719  .00000242  00000+0  33011-4 0  9991
2 55996  43.0099  63.4247 0002483 276.8787  83.1773 15.02523533 92941
STARLINK-5902           
1 55998U 23042N   24334.55567587 -.00002971  00000+0 -20496-3 0  9995
2 55998  43.0059  63.3865 0001392 267.1548  92.9135 15.02537709 92940
STARLINK-5901           
1 55999U 23042P   24334.56343057 -.00014346  00000+0 -10470-2 0  9990
2 55999  43.0062  63.4466 0003907 284.9178  75.1232 15.02603664 92948
STARLINK-5910           
1 56000U 23042Q   24334.54347129 -.00000195  00000+0  61488-6 0  9991
2 56000  43.0046  63.2957 0001275 278.8365  81.2333 15.02533483 92944
STARLINK-5944           
1 56001U 23042R   24334.28643605  .00000875  00000+0  79853-4 0  9998
2 56001  43.0021  64.8049 0002584 280.1687  79.8864 15.02535145 92909
STARLINK-5799           
1 56002U 23042S   24334.54680510 -.00001215  00000+0 -74859-4 0  9996
2 56002  43.0053  63.3224 0001632 274.2406  85.8249 15.02525930 92949
STARLINK-5789           
1 56003U 23042T   24334.55901122  .00000312  00000+0  38198-4 0  9994
2 56003  43.0071  63.4108 0001293 267.9641  92.1053 15.02537118 92940
STARLINK-5787           
1 56004U 23042U   24334.54013983  .00001542  00000+0  12917-3 0  9999
2 56004  43.0039  63.2734 0001175 264.4322  95.6386 15.02536055 92941
STARLINK-5801           
1 56005U 23042V   24334.74956279  .00000515  00000+0  53193-4 0  9997
2 56005  43.0044  62.2649 0001149 263.4498  96.6214 15.02536220 92974
STARLINK-5794           
1 56006U 23042W   24334.60217658  .00000691  00000+0  66248-4 0  9994
2 56006  43.0036  62.8717 0001199 282.5085  77.5623 15.02537645 92959
STARLINK-5806           
1 56007U 23042X   24334.60550693  .00001990  00000+0  16235-3 0  9997
2 56007  43.0045  62.9024 0001580 265.5520  94.5141 15.02529523 92951
STARLINK-5803           
1 56008U 23042Y   24334.53015865 -.00000242  00000+0 -28457-5 0  9999
2 56008  42.9947  63.1901 0001448 146.5887 213.5046 15.02523731 92946
STARLINK-5964           
1 56009U 23042Z   24334.53681386 -.00001042  00000+0 -62073-4 0  9997
2 56009  43.0097  63.2467 0002473 273.9770  86.0790 15.02533743 92941
STARLINK-5968           
1 56010U 23042AA  24334.53237002  .00000215  00000+0  30974-4 0  9995
2 56010  43.0061  63.2126 0001251 256.9834 103.0869 15.02534814 92948
STARLINK-5936           
1 56011U 23042AB  24334.59700992  .00000488  00000+0  51182-4 0  9991
2 56011  43.0040  50.6857 0001069 268.7847  91.2872 15.02526429 93091
STARLINK-5940           
1 56012U 23042AC  24334.20368270  .00002732  00000+0  21727-3 0  9994
2 56012  43.0032  52.9016 0001736 301.4823  58.5850 15.02532700 93030
STARLINK-5941           
1 56013U 23042AD  24334.52904424  .00003031  00000+0  23941-3 0  9990
2 56013  43.0040  63.1849 0000776 246.1843 113.8918 15.02528287 92942
STARLINK-5942           
1 56014U 23042AE  24334.52941816  .00001912  00000+0  15661-3 0  9993
2 56014  43.0033  51.0412 0001668 278.2247  81.8406 15.02520716 93083
STARLINK-5939           
1 56015U 23042AF  24334.53274723  .00001006  00000+0  89552-4 0  9996
2 56015  43.0064  51.0642 0001615 272.8233  87.2425 15.02532081 93089
STARLINK-5943           
1 56016U 23042AG  24334.51276504  .00000345  00000+0  40587-4 0  9994
2 56016  43.0048  50.9134 0001361 262.5897  97.4791 15.02536124 93087
